[{"OBJECT_NAME":"GAOFEN-9 03","OBJECT_ID":"2020-039A","EPOCH":"2026-03-09T21:55:15.121344","MEAN_MOTION":15.30529116,"ECCENTRICITY":0.0013094,"INCLINATION":97.5219,"RA_OF_ASC_NODE":201.2158,"ARG_OF_PERICENTER":77.4533,"MEAN_ANOMALY":282.8172,"EPHEMERIS_TYPE":0,"CLASSIFICATION_TYPE":"U","NORAD_CAT_ID":45794,"ELEMENT_SET_NO":999,"REV_AT_EPOCH":31856,"BSTAR":0.00039258132,"MEAN_MOTION_DOT":0.00011544,"MEAN_MOTION_DDOT":0},{"OBJECT_NAME":"STARLINK-33969","OBJECT_ID":"2025-093V","EPOCH":"2026-03-09T10:23:45.657312","MEAN_MOTION":15.27600671,"ECCENTRICITY":0.00031189,"INCLINATION":43.0041,"RA_OF_ASC_NODE":79.2681,"ARG_OF_PERICENTER":285.4479,"MEAN_ANOMALY":74.6028,"EPHEMERIS_TYPE":0,"CLASSIFICATION_TYPE":"U","NORAD_CAT_ID":63855,"ELEMENT_SET_NO":999,"REV_AT_EPOCH":4771,"BSTAR":0.00082373197,"MEAN_MOTION_DOT":0.0002249,"MEAN_MOTION_DDOT":0}]
